MEAN_MOTION;ECCENTRICITY;INCLINATION;RA_OF_ASC_NODE;ARG_OF_PERICENTER;MEAN_ANOMALY;BSTAR;MEAN_MOTION_DOT;MEAN_MOTION_DDOT;TYPE
14.83069269;0.000696;97.6212;103.8002;272.297;87.7448;1.2147E-5;4.9E-7;0;Amateur
14.83069344;0.0006967;97.6212;104.1863;270.6765;89.3651;1.3217E-5;5.8E-7;0;Amateur
14.83069441;0.0006968;97.6211;104.7655;268.2374;91.8043;1.456E-5;6.9E-7;0;Amateur
14.83069554;0.0006982;97.621;105.216;266.3279;93.7137;1.5602E-5;7.7E-7;0;Amateur
14.83069726;0.0006985;97.6209;105.7308;264.1389;95.903;1.685E-5;8.7E-7;0;Amateur
14.83069912;0.0007005;97.6208;106.3743;261.3452;98.6969;1.6457E-5;8.4E-7;0;Amateur
14.83070053;0.000701;97.6207;106.8892;259.1544;100.8881;1.5181E-5;7.4E-7;0;Amateur
14.83070238;0.0007014;97.6207;107.5327;256.4538;103.5895;1.3368E-5;5.9E-7;0;Amateur
14.83070566;0.0007021;97.6205;108.498;252.4918;107.5529;1.3617E-5;6.1E-7;0;Amateur
14.83070693;0.000707;97.6204;109.5275;248.0329;112.0134;1.3662E-5;6.1E-7;0;Amateur
14.83070739;0.0007087;97.6204;109.785;247.0144;113.0323;1.4214E-5;6.6E-7;0;Amateur
14.83070898;0.0007117;97.6203;110.4928;244.146;115.9021;1.5168E-5;7.4E-7;0;Amateur
14.83071042;0.0007168;97.6201;111.5868;239.805;120.2455;1.2003E-5;4.8E-7;0;Amateur
14.83071058;0.0007173;97.6201;111.6512;239.5254;120.5253;1.1919E-5;4.7E-7;0;Amateur
14.83071231;0.0007222;97.62;112.6164;235.5606;124.4926;8.7836E-6;2.2E-7;0;Amateur
14.83071514;0.0007278;97.6199;113.646;231.4501;128.6062;9.6076E-6;2.8E-7;0;Amateur
14.83071539;0.0007284;97.6199;113.7104;231.2253;128.8311;9.7844E-6;3.0E-7;0;Amateur
14.83071667;0.0007348;97.6198;114.5469;227.8163;132.2428;1.1061E-5;4.0E-7;0;Amateur
14.8307171;0.0007351;97.6198;114.6755;227.3468;132.7127;1.16E-5;4.4E-7;0;Amateur
14.83071825;0.0007389;97.6197;115.1903;225.3107;134.7506;1.347E-5;6.0E-7;0;Amateur
14.83071821;0.0007395;97.6197;115.2547;225.0482;135.0133;1.3443E-5;5.9E-7;0;Amateur
14.83071882;0.0007427;97.6196;115.6407;223.6059;136.4569;1.4135E-5;6.5E-7;0;Amateur
14.83071942;0.0007451;97.6196;116.1555;221.5686;138.4962;1.4082E-5;6.5E-7;0;Amateur
14.83071945;0.0007456;97.6196;116.2198;221.3249;138.7402;1.4052E-5;6.4E-7;0;Amateur
14.83072033;0.0007493;97.6195;116.6059;219.8887;140.1777;1.4E-5;6.4E-7;0;Amateur
14.83072163;0.000753;97.6194;117.1206;217.8744;142.1942;1.3272E-5;5.8E-7;0;Amateur
14.83072229;0.0007554;97.6194;117.4424;216.5948;143.4751;1.2764E-5;5.4E-7;0;Amateur
14.83072381;0.0007597;97.6193;118.0214;214.3118;145.7607;1.1603E-5;4.5E-7;0;Amateur
14.83072455;0.0007622;97.6192;118.4075;212.844;147.2301;1.1239E-5;4.2E-7;0;Amateur
14.83072609;0.0007664;97.6192;118.9866;210.6031;149.4737;1.1416E-5;4.3E-7;0;Amateur
14.83072672;0.000769;97.6191;119.3727;209.2146;150.8639;1.1838E-5;4.6E-7;0;Amateur
14.83072831;0.0007743;97.619;120.2091;206.0724;154.0102;1.3813E-5;6.3E-7;0;Amateur
14.83072964;0.0007803;97.6189;120.9168;203.4547;156.6313;1.4762E-5;7.0E-7;0;Amateur
14.83072967;0.0007807;97.6188;120.9811;203.2228;156.8634;1.4778E-5;7.0E-7;0;Amateur
14.83073176;0.0007873;97.6187;121.6888;200.6702;159.4195;1.5917E-5;8.0E-7;0;Amateur
14.83073325;0.0007932;97.6186;122.3322;198.3316;161.7614;1.4462E-5;6.8E-7;0;Amateur
14.8307354;0.0008012;97.6185;123.1686;195.2589;164.8385;1.2585E-5;5.3E-7;0;Amateur
14.83073592;0.0008024;97.6185;123.2973;194.8063;165.2918;1.2423E-5;5.1E-7;0;Amateur
14.83073747;0.0008069;97.6184;123.812;192.8817;167.2193;1.1866E-5;4.7E-7;0;Amateur
14.83073871;0.0008108;97.6184;124.1337;191.7814;168.3212;1.2586E-5;5.3E-7;0;Amateur
14.83073936;0.0008125;97.6184;124.3267;191.1158;168.9878;1.2727E-5;5.4E-7;0;Amateur
14.83074046;0.0008162;97.6183;124.7127;189.7117;170.3941;1.3128E-5;5.7E-7;0;Amateur
14.83074113;0.0008188;97.6183;125.0344;188.6165;171.491;1.3729E-5;6.2E-7;0;Amateur
14.83074149;0.0008197;97.6183;125.1631;188.1632;171.945;1.3826E-5;6.3E-7;0;Amateur
14.83074387;0.0008284;97.6182;126.1281;184.839;175.2745;1.5821E-5;7.9E-7;0;Amateur
14.83074521;0.0008337;97.6181;126.7071;182.8516;177.2652;1.6068E-5;8.1E-7;0;Amateur
14.83074684;0.0008393;97.6181;127.2218;181.1246;178.9951;1.6352E-5;8.3E-7;0;Amateur
14.83074896;0.000847;97.618;127.9295;178.702;181.4218;1.5104E-5;7.3E-7;0;Amateur
14.830752;0.0008548;97.6179;128.8302;175.5559;184.5733;1.3926E-5;6.3E-7;0;Amateur
14.83075222;0.0008548;97.6179;128.8945;175.3201;184.8095;1.3886E-5;6.3E-7;0;Amateur
14.83075537;0.0008645;97.6177;129.8595;172.0443;188.091;1.4787E-5;7.1E-7;0;Amateur
14.83075569;0.0008656;97.6177;129.9238;171.8506;188.285;1.4941E-5;7.2E-7;0;Amateur
14.83075801;0.0008743;97.6176;130.7601;169.0956;191.0449;1.722E-5;9.0E-7;0;Amateur
14.83075842;0.000875;97.6176;130.8887;168.6639;191.4774;1.743E-5;9.2E-7;0;Amateur
14.83076018;0.0008803;97.6175;131.4677;166.7772;193.3675;1.9044E-5;1.05E-6;0;Amateur
14.83076119;0.0008837;97.6175;131.918;165.3213;194.8259;1.9073E-5;1.05E-6;0;Amateur
14.83076224;0.0008888;97.6174;132.4326;163.6522;196.4981;1.8242E-5;9.9E-7;0;Amateur
14.83076483;0.0008967;97.6172;133.2689;160.9265;199.2287;1.6497E-5;8.4E-7;0;Amateur
14.83076559;0.0009007;97.6171;133.6549;159.6866;200.4708;1.5052E-5;7.3E-7;0;Amateur
14.83076729;0.0009065;97.6171;134.2338;157.8299;202.3309;1.3275E-5;5.8E-7;0;Amateur
14.83076819;0.0009098;97.617;134.6198;156.6105;203.5524;1.2937E-5;5.5E-7;0;Amateur
14.8307713;0.000918;97.6169;135.5847;153.5918;206.5766;1.4489E-5;6.8E-7;0;Amateur
14.83077251;0.0009224;97.6168;136.2279;151.4816;208.6905;1.5091E-5;7.3E-7;0;Amateur
14.83077455;0.0009287;97.6167;137.1928;148.5029;211.6743;1.5922E-5;8.0E-7;0;Amateur
14.83077695;0.000934;97.6165;138.1578;145.4717;214.7106;1.452E-5;6.8E-7;0;Amateur
14.8307791;0.0009417;97.6163;139.1226;142.4594;217.7279;1.122E-5;4.1E-7;0;Amateur
14.83077973;0.0009437;97.6163;139.3799;141.6797;218.509;1.0826E-5;3.8E-7;0;Amateur
14.83078156;0.00095;97.6162;140.2804;138.8513;221.342;1.0092E-5;3.2E-7;0;Amateur
14.83078179;0.0009504;97.6162;140.3447;138.6595;221.534;1.0184E-5;3.3E-7;0;Amateur
14.8307828;0.0009544;97.6161;140.9236;136.8261;223.3703;1.062E-5;3.7E-7;0;Amateur
14.83078337;0.0009564;97.6161;141.2452;135.8399;224.358;1.1643E-5;4.5E-7;0;Amateur
14.83078383;0.0009575;97.6161;141.4382;135.2795;224.9193;1.1912E-5;4.7E-7;0;Amateur
14.83078548;0.0009621;97.616;142.1457;133.1638;227.0382;1.4457E-5;6.8E-7;0;Amateur
14.83078638;0.0009652;97.6159;142.6602;131.5688;228.6355;1.4639E-5;6.9E-7;0;Amateur
14.83078675;0.0009656;97.6159;142.7889;131.1942;229.0107;1.4601E-5;6.9E-7;0;Amateur
14.83078688;0.000966;97.6159;142.9175;130.8028;229.4026;1.4426E-5;6.8E-7;0;Amateur
14.83078888;0.000971;97.6158;143.7537;128.3642;231.8447;1.3053E-5;5.6E-7;0;Amateur
14.83078963;0.000973;97.6157;144.1396;127.2065;233.0039;1.2234E-5;5.0E-7;0;Amateur
14.83079068;0.0009767;97.6157;144.7185;125.4714;234.7413;1.0157E-5;3.3E-7;0;Amateur
14.8307919;0.0009785;97.6156;145.1043;124.3218;235.8923;1.1009E-5;4.0E-7;0;Amateur
14.83079321;0.000982;97.6156;145.7475;122.3157;237.901;1.1156E-5;4.1E-7;0;Amateur
14.83079401;0.0009834;97.6155;146.0691;121.3711;238.8467;1.2112E-5;4.9E-7;0;Amateur
14.83079508;0.0009865;97.6154;146.7122;119.4366;240.7834;1.3065E-5;5.7E-7;0;Amateur
14.83079747;0.0009905;97.6152;147.8699;116.071;244.1525;1.5498E-5;7.6E-7;0;Amateur
14.83079982;0.0009942;97.615;148.8345;113.2711;246.9551;1.476E-5;7.0E-7;0;Amateur
14.83080009;0.0009945;97.615;148.8988;113.0667;247.1597;1.4716E-5;7.0E-7;0;Amateur
14.83080183;0.0009972;97.6149;149.542;111.1222;249.1059;1.3104E-5;5.7E-7;0;Amateur
14.83080235;0.0009982;97.6149;149.7992;110.3829;249.8458;1.2699E-5;5.4E-7;0;Amateur
14.83080266;0.0009985;97.6149;149.8635;110.2103;250.0186;1.2806E-5;5.4E-7;0;Amateur
14.83080438;0.0010012;97.6148;150.5066;108.3503;251.8801;1.1717E-5;4.6E-7;0;Amateur
14.83080524;0.001002;97.6148;150.8282;107.4337;252.7974;1.2075E-5;4.8E-7;0;Amateur
14.83080574;0.0010023;97.6148;150.9568;107.0546;253.1767;1.2201E-5;5.0E-7;0;Amateur
14.83080685;0.0010038;97.6148;151.4069;105.7392;254.493;1.2708E-5;5.4E-7;0;Amateur
14.83080779;0.001004;97.6147;151.7285;104.8392;255.3935;1.4041E-5;6.5E-7;0;Amateur
14.83080935;0.0010047;97.6147;152.3073;103.1156;257.118;1.5186E-5;7.4E-7;0;Amateur
14.83080964;0.0010049;97.6146;152.6931;102.0189;258.2152;1.4919E-5;7.2E-7;0;Amateur
14.8308112;0.0010057;97.6146;153.2719;100.3186;259.9162;1.5161E-5;7.4E-7;0;Amateur
14.83081137;0.0010056;97.6145;153.4005;99.9357;260.2992;1.4949E-5;7.2E-7;0;Amateur
14.83081398;0.0010065;97.6145;154.2365;97.5687;262.6671;1.407E-5;6.5E-7;0;Amateur
14.83081472;0.0010067;97.6144;154.6224;96.4589;263.7772;1.2794E-5;5.4E-7;0;Amateur
14.83081665;0.0010079;97.6143;155.5227;93.8518;266.3849;1.0138E-5;3.3E-7;0;Amateur
14.83081916;0.0010078;97.6142;156.2301;91.8339;268.4029;1.1385E-5;4.3E-7;0;Amateur
14.83081945;0.0010082;97.6142;156.6802;90.4699;269.7671;1.0783E-5;3.8E-7;0;Amateur
14.83082122;0.0010077;97.6141;157.3876;88.2632;271.9736;1.3244E-5;5.8E-7;0;Amateur
14.83082191;0.001007;97.6141;157.6448;87.543;272.6937;1.3758E-5;6.2E-7;0;Amateur
14.83082342;0.0010067;97.614;158.095;86.2062;274.0303;1.5527E-5;7.7E-7;0;Amateur
14.83082524;0.0010062;97.6139;158.4165;85.2465;274.9898;1.8443E-5;1.0E-6;0;Amateur
14.83082584;0.0010057;97.6139;158.6094;84.6698;275.5664;1.8446E-5;1.0E-6;0;Amateur
14.83082764;0.0010055;97.6138;159.0595;83.3857;276.8502;1.9345E-5;1.08E-6;0;Amateur
14.83082655;0.0010056;97.6138;159.1238;83.198;277.0378;1.6683E-5;8.6E-7;0;Amateur
14.83082794;0.0010045;97.6137;159.5739;81.9012;278.3342;1.6024E-5;8.1E-7;0;Amateur
14.83083056;0.0010041;97.6137;160.3456;79.6488;280.5858;1.5195E-5;7.4E-7;0;Amateur
14.8308312;0.0010038;97.6137;160.5385;79.0922;281.1422;1.4786E-5;7.1E-7;0;Amateur
14.83083665;0.0010027;97.6136;161.503;76.2638;283.9692;1.8928E-5;1.04E-6;0;Amateur
14.83083766;0.0010009;97.6135;162.2104;74.1543;286.0774;1.7423E-5;9.2E-7;0;Amateur
14.83083907;0.0009998;97.6135;162.5962;73.0227;287.2082;1.8483E-5;1.01E-6;0;Amateur
14.83084006;0.0009979;97.6134;163.1106;71.4704;288.7594;1.8327E-5;9.9E-7;0;Amateur
14.83084222;0.0009952;97.6133;163.7536;69.5794;290.6488;1.8717E-5;1.03E-6;0;Amateur
